ORBCOMM FM33 [-]        
1 25983U 99065D   23318.48862390  .00001182  00000+0  44250-3 0  9992
2 25983  45.0293 232.6462 0009540  17.6148 152.0342 14.36973229252453
ORBCOMM FM36 [-]        
1 25984U 99065E   23318.37029904  .00001269  00000+0  49200-3 0  9993
2 25984  45.0414 315.6376 0005436 272.0083  88.0142 14.34847758250910
ORBCOMM FM35 [+]        
1 25985U 99065F   23318.29780576  .00001202  00000+0  47193-3 0  9990
2 25985  45.0413 318.1358 0003612 338.3476  21.7218 14.34526280251300
ORBCOMM FM34 [-]        
1 25986U 99065G   23318.26297330  .00001212  00000+0  47576-3 0  9995
2 25986  45.0409 318.7846 0005468 302.0549  57.9767 14.34478016251419
ORBCOMM FM38 [-]        
1 33060U 08031A   23318.36622854  .00001852  00000+0  29304-3 0  9993
2 33060  48.4405 191.8546 0005151  73.3676 286.7802 14.76401541828797
ORBCOMM FM41 [-]        
1 33061U 08031B   23318.41261273  .00001854  00000+0  29488-3 0  9999
2 33061  48.4442 197.8537 0004300  58.5008 111.7944 14.76162160828306
ORBCOMM FM29 [-]        
1 33062U 08031C   23318.45762603  .00002044  00000+0  32300-3 0  9996
2 33062  48.4398 205.6340 0006251  56.5976 113.5083 14.76046134828223
ORBCOMM FM39 [-]        
1 33063U 08031D   23318.14418678  .00002073  00000+0  33355-3 0  9996
2 33063  48.4411 226.3855 0007280  30.1650 329.9681 14.75185586827894
